STARLINK-32366          
1 61551U 24184V   26068.16918327 -.00005260  00000+0 -16551-3 0  9991
2 61551  53.1624  16.6139 0001354 137.4615 222.6491 15.30213666 78427
W-SERIES 4              
1 64543U 25135R   26068.82962634  .00052628  21484-5  63083-3 0  9990
2 64543  97.4458 182.1022 0402581  65.9998 298.2822 15.01503849 39543
